start=new Date('2022-10-15T00:00:00.000Z').valueOf();
sats=[{"CENTER_NAME":"EARTH","TIME_SYSTEM":"UTC","RCS_SIZE":"LARGE","BSTAR":"0.00014289000000","ECCENTRICITY":"0.00021490","RA_OF_ASC_NODE":"335.5509","GP_ID":"215101888","APOAPSIS":"541.218","OBJECT_TYPE":"PAYLOAD","SITE":"AFETR","REF_FRAME":"TEME","PERIAPSIS":"538.245","LAUNCH_DATE":"2022-01-06","TLE_LINE1":"1 50812U 22001K   22287.49349322  .00001987  00000-0  14289-3 0  9990","MEAN_ELEMENT_THEORY":"SGP4","TLE_LINE2":"2 50812  53.2172 335.5509 0002149  39.4840 320.6308 15.08844650 43013","REV_AT_EPOCH":"4301","OBJECT_NAME":"STARLINK-3338","EPHEMERIS_TYPE":"0","EPOCH":"2022-10-14T11:50:37.814208","COUNTRY_CODE":"US","MEAN_MOTION_DOT":"0.00001987","FILE":"3611991","ARG_OF_PERICENTER":"39.4840","INCLINATION":"53.2172","MEAN_MOTION":"15.08844650","NORAD_CAT_ID":"50812","CLASSIFICATION_TYPE":"U","OBJECT_ID":"2022-001K","MEAN_ANOMALY":"320.6308","MEAN_MOTION_DDOT":"0.0000000000000","ELEMENT_SET_NO":"999","SEMIMAJOR_AXIS":"6917.866","PERIOD":"95.437","DECAY_DATE":null},{"BSTAR":"0.00005863100000","TIME_SYSTEM":"UTC","RCS_SIZE":"LARGE","CENTER_NAME":"EARTH","OBJECT_TYPE":"PAYLOAD","SITE":"AFETR","RA_OF_ASC_NODE":"333.9362","GP_ID":"215109127","APOAPSIS":"541.071","ECCENTRICITY":"0.00019970","PERIAPSIS":"538.308","REF_FRAME":"TEME","MEAN_ELEMENT_THEORY":"SGP4","LAUNCH_DATE":"2022-01-06","TLE_LINE1":"1 50813U 22001L   22287.85781409  .00000645  00000-0  58631-4 0  9997","EPHEMERIS_TYPE":"0","EPOCH":"2022-10-14T20:35:15.137376","COUNTRY_CODE":"US","REV_AT_EPOCH":"4432","OBJECT_NAME":"STARLINK-3349","TLE_LINE2":"2 50813  53.2177 333.9362 0001997  47.9707 312.1455 15.08858404 44320","NORAD_CAT_ID":"50813","MEAN_MOTION":"15.08858404","FILE":"3612198","INCLINATION":"53.2177","ARG_OF_PERICENTER":"47.9707","MEAN_MOTION_DOT":"0.00000645","MEAN_ANOMALY":"312.1455","OBJECT_ID":"2022-001L","CLASSIFICATION_TYPE":"U","PERIOD":"95.436","DECAY_DATE":null,"SEMIMAJOR_AXIS":"6917.824","MEAN_MOTION_DDOT":"0.0000000000000","ELEMENT_SET_NO":"999"},{"CENTER_NAME":"EARTH","RCS_SIZE":"LARGE","TIME_SYSTEM":"UTC","BSTAR":"0.00014576000000","ECCENTRICITY":"0.00021710","APOAPSIS":"541.255","RA_OF_ASC_NODE":"345.2106","GP_ID":"215145082","SITE":"AFETR","OBJECT_TYPE":"PAYLOAD","REF_FRAME":"TEME","PERIAPSIS":"538.251","TLE_LINE1":"1 50814U 22001M   22287.57257567  .00002032  00000-0  14576-3 0  9991","LAUNCH_DATE":"2022-01-06","MEAN_ELEMENT_THEORY":"SGP4","TLE_LINE2":"2 50814  53.2187 345.2106 0002171  35.6832 324.4305 15.08837630 42890","OBJECT_NAME":"STARLINK-3324","REV_AT_EPOCH":"4289","COUNTRY_CODE":"US","EPHEMERIS_TYPE":"0","EPOCH":"2022-10-14T13:44:30.537888","MEAN_MOTION_DOT":"0.00002032","INCLINATION":"53.2187","ARG_OF_PERICENTER":"35.6832","FILE":"3612869","MEAN_MOTION":"15.08837630","NORAD_CAT_ID":"50814","CLASSIFICATION_TYPE":"U","OBJECT_ID":"2022-001M","MEAN_ANOMALY":"324.4305","MEAN_MOTION_DDOT":"0.0000000000000","ELEMENT_SET_NO":"999","SEMIMAJOR_AXIS":"6917.888","DECAY_DATE":null,"PERIOD":"95.438"},{"CLASSIFICATION_TYPE":"U","OBJECT_ID":"2022-001N","MEAN_ANOMALY":"320.2256","SEMIMAJOR_AXIS":"6917.798","MEAN_MOTION_DDOT":"0.0000000000000","ELEMENT_SET_NO":"999","DECAY_DATE":null,"PERIOD":"95.436","OBJECT_NAME":"STARLINK-3234","REV_AT_EPOCH":"4289","TLE_LINE2":"2 50815  53.2191 345.1565 0002226  39.8899 320.2256 15.08866918 42894","COUNTRY_CODE":"US","EPOCH":"2022-10-14T14:00:22.720320","EPHEMERIS_TYPE":"0","ARG_OF_PERICENTER":"39.8899","INCLINATION":"53.2191","FILE":"3612869","MEAN_MOTION_DOT":"0.00004455","NORAD_CAT_ID":"50815","MEAN_MOTION":"15.08866918","PERIAPSIS":"538.123","REF_FRAME":"TEME","MEAN_ELEMENT_THEORY":"SGP4","TLE_LINE1":"1 50815U 22001N   22287.58359630  .00004455  00000-0  29759-3 0  9997","LAUNCH_DATE":"2022-01-06","RCS_SIZE":"LARGE","TIME_SYSTEM":"UTC","CENTER_NAME":"EARTH","BSTAR":"0.00029759000000","ECCENTRICITY":"0.00022260","SITE":"AFETR","OBJECT_TYPE":"PAYLOAD","APOAPSIS":"541.203","RA_OF_ASC_NODE":"345.1565","GP_ID":"215143830"},{"TLE_LINE1":"1 50816U 22001P   22287.55417590  .00004303  00000-0  28828-3 0  9993","LAUNCH_DATE":"2022-01-06","MEAN_ELEMENT_THEORY":"SGP4","REF_FRAME":"TEME","PERIAPSIS":"538.229","APOAPSIS":"541.241","RA_OF_ASC_NODE":"345.2977","GP_ID":"215144581","SITE":"AFETR","OBJECT_TYPE":"PAYLOAD","ECCENTRICITY":"0.00021770","BSTAR":"0.00028828000000","CENTER_NAME":"EARTH","RCS_SIZE":"LARGE","TIME_SYSTEM":"UTC","DECAY_DATE":null,"PERIOD":"95.437","ELEMENT_SET_NO":"999","MEAN_MOTION_DDOT":"0.0000000000000","SEMIMAJOR_AXIS":"6917.870","OBJECT_ID":"2022-001P","MEAN_ANOMALY":"324.2061","CLASSIFICATION_TYPE":"U","MEAN_MOTION":"15.08843497","NORAD_CAT_ID":"50816","MEAN_MOTION_DOT":"0.00004303","INCLINATION":"53.2158","ARG_OF_PERICENTER":"35.9077","FILE":"3612869","COUNTRY_CODE":"US","EPHEMERIS_TYPE":"0","EPOCH":"2022-10-14T13:18:00.797760","TLE_LINE2":"2 50816  53.2158 345.2977 0002177  35.9077 324.2061 15.08843497 42880","OBJECT_NAME":"STARLINK-3342","REV_AT_EPOCH":"4288"},{"TLE_LINE1":"1 50817U 22001Q   22287.51369883  .00001989  00000-0  14301-3 0  9999","LAUNCH_DATE":"2022-01-06","MEAN_ELEMENT_THEORY":"SGP4","REF_FRAME":"TEME","PERIAPSIS":"538.372","ECCENTRICITY":"0.00019730","APOAPSIS":"541.102","GP_ID":"215115992","RA_OF_ASC_NODE":"345.4726","SITE":"AFETR","OBJECT_TYPE":"PAYLOAD","CENTER_NAME":"EARTH","RCS_SIZE":"LARGE","TIME_SYSTEM":"UTC","BSTAR":"0.00014301000000","MEAN_MOTION_DDOT":"0.0000000000000","ELEMENT_SET_NO":"999","SEMIMAJOR_AXIS":"6917.872","DECAY_DATE":null,"PERIOD":"95.437","CLASSIFICATION_TYPE":"U","OBJECT_ID":"2022-001Q","MEAN_ANOMALY":"323.7428","MEAN_MOTION_DOT":"0.00001989","ARG_OF_PERICENTER":"36.3698","INCLINATION":"53.2187","FILE":"3612497","MEAN_MOTION":"15.08842687","NORAD_CAT_ID":"50817","TLE_LINE2":"2 50817  53.2187 345.4726 0001973  36.3698 323.7428 15.08842687 44135","REV_AT_EPOCH":"4413","OBJECT_NAME":"STARLINK-3341","COUNTRY_CODE":"US","EPOCH":"2022-10-14T12:19:43.578912","EPHEMERIS_TYPE":"0"},{"SEMIMAJOR_AXIS":"6917.869","ELEMENT_SET_NO":"999","MEAN_MOTION_DDOT":"0.0000000000000","DECAY_DATE":null,"PERIOD":"95.437","CLASSIFICATION_TYPE":"U","OBJECT_ID":"2022-001R","MEAN_ANOMALY":"327.6008","ARG_OF_PERICENTER":"32.5140","INCLINATION":"53.2158","FILE":"3611991","MEAN_MOTION_DOT":"0.00002624","NORAD_CAT_ID":"50818","MEAN_MOTION":"15.08843691","REV_AT_EPOCH":"4286","OBJECT_NAME":"STARLINK-3336","TLE_LINE2":"2 50818  53.2158 345.8389 0002540  32.5140 327.6008 15.08843691 42865","COUNTRY_CODE":"US","EPOCH":"2022-10-14T10:17:50.486784","EPHEMERIS_TYPE":"0","MEAN_ELEMENT_THEORY":"SGP4","TLE_LINE1":"1 50818U 22001R   22287.42905656  .00002624  00000-0  18289-3 0  9990","LAUNCH_DATE":"2022-01-06","PERIAPSIS":"537.977","REF_FRAME":"TEME","ECCENTRICITY":"0.00025400","SITE":"AFETR","OBJECT_TYPE":"PAYLOAD","APOAPSIS":"541.491","GP_ID":"215102890","RA_OF_ASC_NODE":"345.8389","RCS_SIZE":"LARGE","TIME_SYSTEM":"UTC","CENTER_NAME":"EARTH","BSTAR":"0.00018289000000"},{"MEAN_ELEMENT_THEORY":"SGP4","TLE_LINE1":"1 50819U 22001S   22287.63513336  .00011454  00000-0  73601-3 0  9994","LAUNCH_DATE":"2022-01-06","PERIAPSIS":"538.001","REF_FRAME":"TEME","ECCENTRICITY":"0.00023970","SITE":"AFETR","OBJECT_TYPE":"PAYLOAD","APOAPSIS":"541.317","GP_ID":"215144331","RA_OF_ASC_NODE":"344.9291","RCS_SIZE":"LARGE","TIME_SYSTEM":"UTC","CENTER_NAME":"EARTH","BSTAR":"0.00073601000000","SEMIMAJOR_AXIS":"6917.794","MEAN_MOTION_DDOT":"0.0000000000000","ELEMENT_SET_NO":"999","DECAY_DATE":null,"PERIOD":"95.436","CLASSIFICATION_TYPE":"U","OBJECT_ID":"2022-001S","MEAN_ANOMALY":"330.5815","ARG_OF_PERICENTER":"29.5312","INCLINATION":"53.2172","FILE":"3612869","MEAN_MOTION_DOT":"0.00011454","NORAD_CAT_ID":"50819","MEAN_MOTION":"15.08868310","OBJECT_NAME":"STARLINK-3327","REV_AT_EPOCH":"4290","TLE_LINE2":"2 50819  53.2172 344.9291 0002397  29.5312 330.5815 15.08868310 42900","COUNTRY_CODE":"US","EPHEMERIS_TYPE":"0","EPOCH":"2022-10-14T15:14:35.522304"},{"MEAN_MOTION":"15.08849253","NORAD_CAT_ID":"50820","MEAN_MOTION_DOT":"0.00007478","FILE":"3612869","ARG_OF_PERICENTER":"30.6885","INCLINATION":"53.2156","EPOCH":"2022-10-14T16:23:28.813632","EPHEMERIS_TYPE":"0","COUNTRY_CODE":"US","TLE_LINE2":"2 50820  53.2156 344.7194 0002316  30.6885 329.4242 15.08849253 42909","REV_AT_EPOCH":"4290","OBJECT_NAME":"STARLINK-3339","PERIOD":"95.437","DECAY_DATE":null,"MEAN_MOTION_DDOT":"0.0000000000000","ELEMENT_SET_NO":"999","SEMIMAJOR_AXIS":"6917.852","MEAN_ANOMALY":"329.4242","OBJECT_ID":"2022-001T","CLASSIFICATION_TYPE":"U","RA_OF_ASC_NODE":"344.7194","GP_ID":"215144081","APOAPSIS":"541.319","OBJECT_TYPE":"PAYLOAD","SITE":"AFETR","ECCENTRICITY":"0.00023160","BSTAR":"0.00048732000000","CENTER_NAME":"EARTH","TIME_SYSTEM":"UTC","RCS_SIZE":"LARGE","LAUNCH_DATE":"2022-01-06","TLE_LINE1":"1 50820U 22001T   22287.68297238  .00007478  00000-0  48732-3 0  9999","MEAN_ELEMENT_THEORY":"SGP4","REF_FRAME":"TEME","PERIAPSIS":"538.115"},{"NORAD_CAT_ID":"50821","MEAN_MOTION":"15.08847719","INCLINATION":"53.2159","ARG_OF_PERICENTER":"39.4117","FILE":"3611991","MEAN_MOTION_DOT":"0.00004760","COUNTRY_CODE":"US","EPHEMERIS_TYPE":"0","EPOCH":"2022-10-14T11:16:07.153536","OBJECT_NAME":"STARLINK-3346","REV_AT_EPOCH":"4287","TLE_LINE2":"2 50821  53.2159 345.6686 0002055  39.4117 320.7025 15.08847719 42878","DECAY_DATE":null,"PERIOD":"95.437","SEMIMAJOR_AXIS":"6917.857","MEAN_MOTION_DDOT":"0.0000000000000","ELEMENT_SET_NO":"999","OBJECT_ID":"2022-001U","MEAN_ANOMALY":"320.7025","CLASSIFICATION_TYPE":"U","SITE":"AFETR","OBJECT_TYPE":"PAYLOAD","APOAPSIS":"541.143","GP_ID":"215102139","RA_OF_ASC_NODE":"345.6686","ECCENTRICITY":"0.00020550","BSTAR":"0.00031690000000","RCS_SIZE":"LARGE","TIME_SYSTEM":"UTC","CENTER_NAME":"EARTH","MEAN_ELEMENT_THEORY":"SGP4","TLE_LINE1":"1 50821U 22001U   22287.46952724  .00004760  00000-0  31690-3 0  9990","LAUNCH_DATE":"2022-01-06","PERIAPSIS":"538.300","REF_FRAME":"TEME"}];
